#dP2021 11 13  0  0  0.00000000      97 __u+U IGS14 FIT  IAC
## 2183 518400.00000000   900.00000000 59531 0.0000000000000
+  123   C01C02C03C04C05C06C07C08C09C10C11C12C13C14C16C19C20
+        C21C22C23C24C25C26C27C28C29C30C32C33C34C35C36C37C38
+        C39C40C41C42C43C44C45C46C60E01E02E03E04E05E07E08E09
+        E11E12E13E14E15E18E19E21E24E25E26E27E30E31E33E36G01
+        G02G03G04G05G06G07G08G09G10G12G13G14G15G16G17G18G19
+        G20G21G22G23G24G25G26G27G28G29G30G31G32J01J02J03J07
+        R01R02R03R04R05R07R08R09R11R12R13R14R15R16R17R18R19
+        R20R21R22R24  0  0  0  0  0  0  0  0  0  0  0  0  0
++         0  0  0  0  0  0  0  0  0  0  0  0  0  0  0  0  0
++         0  0  0  0  0  0  0  0  0  0  0  0  0  0  0  0  0
++         0  0  0  0  0  0  0  0  0  0  0  0  0  0  0  0  0
++         0  0  0  0  0  0  0  0  0  0  0  0  0  0  0  0  0
++         0  0  0  0  0  0  0  0  0  0  0  0  0  0  0  0  0
++         0  0  0  0  0  0  0  0  0  0  0  0  0  0  0  0  0
++         0  0  0  0  0  0  0  0  0  0  0  0  0  0  0  0  0
++         0  0  0  0  0  0  0  0  0  0  0  0  0  0  0  0  0
%c M  cc GPS ccc cccc cccc cccc cccc ccccc ccccc ccccc ccccc
%c cc cc ccc ccc cccc cccc cccc cccc ccccc ccccc ccccc ccccc
%f  1.2500000  1.025000000  0.00000000000  0.000000000000000
%f  0.0000000  0.000000000  0.00000000000  0.000000000000000
%i    0    0    0    0      0      0      0      0         0
%i    0    0    0    0      0      0      0      0         0
/* INFORMATION & ANALYSIS CENTER (IAC)            FINAL DATA
/* S/V CLOCKS ARE ALIGNED TO GNSS TIME                      
/* G:C1WC2W R:C1PC2P E:C1XC5X C:C2IC6I J:C1CC2S             
/* PCV:IGS14_2163 OL/AL:FES2004  NONE     YN ORB:CoN CLK:CoN
*  2021 11 13 14  0  0.00000000
PC01      0.000000      0.000000      0.000000 999999.999999
PC02   4443.600850  41875.860805  -1048.747215    163.429135
PC03 -14767.068656  39465.592918   -854.751568    164.198811
PC04 -39642.979595  14432.504383    197.512577    152.848983
PC05  21884.127542  36003.088110  -1293.593539    300.498138
PC06  -8455.187907  40720.880406  -6355.010965    481.741783
PC07  -5470.727129  27029.753542  31926.144504    242.483504
PC08 -18525.683864  26622.294900 -27026.148095   -773.812199
PC09  -4353.704438  41648.938901   1938.653974   -263.653247
PC10   3834.324429  30004.973951  29789.443047     12.079357
PC11   8486.922934 -25457.851903  -7500.660049    688.204367
PC12  15146.111606 -10715.495355 -20794.428220    724.780529
PC13 -12045.675412  27438.648589 -29668.465851    473.855855
PC14   5552.783064 -15372.761977  22625.975012    537.580304
PC16 -10935.857087  39064.278805 -10914.046840   -724.053876
PC19   4673.315853  19743.615587 -19148.471846    935.837701
PC20 -13016.435383   9826.288533 -22637.021803   -790.593658
PC21  23943.732336   6635.708782  12726.383304   -936.304080
PC22  20287.235841  18656.345110  -4448.290819   -968.160720
PC23 -13754.045415 -10968.262265 -21658.266250   -965.935779
PC24  22893.899568 -14695.658807  -6148.783869   -961.951641
PC25   5225.569614 -18407.582094 -20309.304666   -825.339922
PC26  25717.747492  -3991.554086  10010.317382    822.366266
PC27 -15946.145583     82.262633  22884.876747    628.833804
PC28  -9633.406787 -19585.030329  17389.364797     -3.165217
PC29  -1317.046024  27830.123156  -1610.686803    473.744832
PC30 -12472.452443  19598.145723  15448.736474    486.147263
PC32 -24003.301493  -6507.662883 -12651.094282   -962.400904
PC33  -4648.046912 -19704.799501  19197.867945   -973.379973
PC34  12167.342911 -20320.838955 -14777.248194   -537.814924
PC35  10121.478613  19631.529508 -17041.614653     -1.134203
PC36  -6151.924032  18356.562418  20126.549263   -802.722611
PC37 -25571.621532   2650.284664 -10870.019197   -890.320461
PC38 -25466.052786  27715.317698 -19170.905847    189.201590
PC39 -12054.773012  36800.784589 -16501.768606     33.993898
PC40  -9635.096800  20774.565053  35418.218311    217.347562
PC41 -20099.041353 -18758.177024   4858.492670   -916.373718
PC42  13848.139091  -9177.421165  22457.828072   -944.315357
PC43   1838.466632 -27836.903738   1006.257409   -961.003133
PC44  16066.318793   -412.717315 -22820.216318    464.479683
PC45  13876.333903  10744.741098  21695.193466    599.794874
PC46 -22216.077112  15262.904662   7319.528529     -6.248524
PC60   7296.636937  41537.819699     29.344108     -0.459755
PE01  26517.182556  -5719.772967 -11825.605090   -516.239923
PE02 -26456.526860   5817.981755  11961.686378    260.030927
PE03 -15328.584523   7581.516130 -24170.969849   -495.543365
PE04   2019.564429 -24072.236047  17104.590086   -898.757213
PE05 -19874.642038 -13677.610644 -17156.819176   -234.272931
PE07  12782.612896  26701.259228    233.666045   -606.612322
PE08  -1519.047460  24255.571664 -16911.713591   5905.699389
PE09 -13018.874872 -26573.151054   -447.112534   5464.997582
PE11  -3183.622903 -20113.612801  21478.453605   5090.632801
PE12  13118.556936 -25890.236579   5832.577704   4911.982280
PE13   2705.214101  20441.920185 -21231.492807    423.651342
PE14   1208.925047 -25607.081649  -8334.095577  -1638.857646
PE15 -13112.150818  25907.076907  -5758.226937    781.185028
PE18  11057.955463  27801.263531  -6126.051093  -1801.297180
PE19  16375.210156  -4869.706953  24168.647138    426.579055
PE21  28293.488159   6385.534957   5891.043737   -699.320511
PE24 -12658.349465 -15852.259852 -21571.048903  -1224.109363
PE25 -28227.916158  -6515.394583  -6090.560210   -553.419731
PE26  17510.568635   2054.230246 -23768.068069   1116.571233
PE27  13841.334428  15494.573126  21086.663180   -163.991088
PE30 -10042.666670  15089.507903  23402.784301    -26.882938
PE31   8610.057814 -15411.035498 -23745.511651   -488.017777
PE33  21140.943921 -16092.794272 -13038.451092   -462.597520
PE36 -16862.615312  -2980.257927  24150.265973   -289.566303
PG01 -12204.577242  21505.115908  -9495.883293    511.970535
PG02  20240.420365 -12879.580021 -10834.967322   -641.823123
PG03  -5795.949737  14004.730290 -21910.666211    -12.550688
PG04  -2013.050271  23913.349403 -11301.013653   -201.937810
PG05  20288.994689  -7062.408881  15549.723563    -60.931509
PG06  16738.061804   2131.603528 -20461.708335    116.937746
PG07   2324.730471  17847.304681  19743.939482    277.412256
PG08  -9074.121017  15668.486930  19306.128009    -44.000029
PG09   7478.361558  25462.217148   -677.842869   -361.736093
PG10 -22107.043459 -11838.103282   9311.228302   -245.232541
PG12   8350.383113 -12997.292635 -21844.065914   -125.742595
PG13  13553.283417  -7975.174957  21229.330016    213.999833
PG14  21450.472380  12827.747520   9069.488883    -37.509351
PG15   7446.609224 -17213.639769  18282.637246   -106.776375
PG16 -22775.562479   2095.673266  13638.031121   -423.443506
PG17  12637.128514  19891.538346 -11789.690237    533.095353
PG18  -2553.696404 -17040.962381  20176.845663    296.214110
PG19  14941.661416  12067.157982 -18683.374478     78.717056
PG20  25681.704755  -2051.626780   5836.894112    518.145541
PG21 -17051.672061  19946.465479    844.377670    150.880397
PG22 -14132.709387  12023.309684 -18758.303936   -465.799835
PG23 -12495.208267 -15256.762133  17811.333680     33.454551
PG24  13769.552168 -22047.221762  -4523.821829    266.562601
PG25  -4286.245327 -16146.567439 -20974.261301    239.947350
PG26 -26313.420058  -4623.518251    523.091513    154.931814
PG27 -14091.261857   4653.612709  21838.813166   -218.667451
PG28  24264.084672  10289.189830   2685.914339    463.646332
PG29  -2695.621695 -26050.199327  -4244.087688   -440.036519
PG30  11955.938921  10322.150888  21426.611219   -491.003270
PG31 -18743.546218   -345.623367 -19100.750082   -149.946100
PG32 -15497.831921 -15968.578371 -14522.972969    -21.501134
PJ01 -22743.359133  17916.918569 -26118.624035    137.302600
PJ02 -29142.296267  24023.755654  23678.265665     -0.095976
PJ03 -29144.716893  26666.452126  19786.330594     -6.166028
PJ07 -25416.884880  33650.507412    -24.121984      1.342259
PR01 -17463.039401  -5642.761988 -17719.938558     88.066386
PR02  -4150.457897  11165.776764 -22513.489574    499.928622
PR03  10201.655052  19651.454835 -12576.797565     46.374677
PR04  18527.572231  17003.210351   4253.066051    114.027582
PR05  16566.512448   4986.850147  18734.701756     82.401605
PR07 -10682.204832 -19830.704762  12050.868678    -39.987563
PR08 -18579.878020 -16977.446591  -4198.543002    -61.993752
PR09  16789.313759 -11898.288242 -15103.003269     23.357522
PR11 -17621.280471  -4304.676309 -17916.712827     50.090639
PR12 -24936.027928   5189.469821  -1567.340072    278.098661
PR13 -17565.223098  11520.535495  14460.048034    -63.497554
PR14    992.876297  11157.151133  22930.025716     70.979213
PR15  18103.142598   4308.906110  17466.875277    100.219163
PR16  24620.540675  -6380.469570    301.096017    -24.905302
PR17  -2575.421996  23422.571261  -9814.703629    474.575530
PR18   6302.247868  12090.831659 -21528.959751     97.053234
PR19  11849.852834  -4177.171037 -22192.379433   -166.846145
PR20  11296.994869 -21310.743765  -8340.233694    -59.276459
PR21   1938.594509 -22862.788824  11112.796777   -254.274308
PR22  -6605.630725 -11315.304706  21895.140019   -144.933953
PR24 -10830.205371  21813.792109   7644.235369     66.795560
EOF
